{
  "type": "FeatureCollection",
  "features": [
    {
      "type": "Feature",
      "properties": {
        "norad_id": 37781,
        "name": "HAIYANG-2A",
        "group": "resource",
        "lat": -49.58179020368099,
        "lon": 146.3292333454078,
        "alt_km": 975.6406578045517,
        "timestamp": "2025-12-02T08:59:32.376424+00:00",
        "meta_object_name": "HAIYANG-2A",
        "meta_object_id": "2011-043A",
        "meta_epoch": "2025-12-02T04:23:43.199232",
        "meta_mean_motion": 13.7883401,
        "meta_eccentricity": 0.000164,
        "meta_inclination": 99.3377,
        "meta_ra_of_asc_node": 337.2803,
        "meta_arg_of_pericenter": 98.3543,
        "meta_mean_anomaly": 261.7795,
        "meta_ephemeris_type": 0,
        "meta_classification_type": "U",
        "meta_norad_cat_id": 37781,
        "meta_element_set_no": 999,
        "meta_rev_at_epoch": 71953,
        "meta_bstar": 5.287e-05,
        "meta_mean_motion_dot": 1e-07,
        "meta_mean_motion_ddot": 0,
        "tle_line1": "1 37781U 11043A   25336.18313888  .00000010  00000+0  52870-4 0  9990",
        "tle_line2": "2 37781  99.3377 337.2803 0001640  98.3543 261.7795 13.78834010719532"
      },
      "geometry": {
        "type": "Point",
        "coordinates": [
          146.3292333454078,
          -49.58179020368099
        ]
      }
    },
    {
      "type": "Feature",
      "properties": {
        "norad_id": 37791,
        "name": "RASAT",
        "group": "resource",
        "lat": -81.89689181634076,
        "lon": 160.92247718731363,
        "alt_km": 690.5427624327613,
        "timestamp": "2025-12-02T08:59:32.376435+00:00",
        "meta_object_name": "RASAT",
        "meta_object_id": "2011-044D",
        "meta_epoch": "2025-12-02T04:53:39.896736",
        "meta_mean_motion": 14.67884493,
        "meta_eccentricity": 0.0021958,
        "meta_inclination": 98.0657,
        "meta_ra_of_asc_node": 65.618,
        "meta_arg_of_pericenter": 96.7196,
        "meta_mean_anomaly": 350.7774,
        "meta_ephemeris_type": 0,
        "meta_classification_type": "U",
        "meta_norad_cat_id": 37791,
        "meta_element_set_no": 999,
        "meta_rev_at_epoch": 76428,
        "meta_bstar": 0.00014567,
        "meta_mean_motion_dot": 7.87e-06,
        "meta_mean_motion_ddot": 0,
        "tle_line1": "1 37791U 11044D   25336.20393399  .00000787  00000+0  14567-3 0  9991",
        "tle_line2": "2 37791  98.0657  65.6180 0021958  96.7196 350.7774 14.67884493764287"
      },
      "geometry": {
        "type": "Point",
        "coordinates": [
          160.92247718731363,
          -81.89689181634076
        ]
      }
    },
    {
      "type": "Feature",
      "properties": {
        "norad_id": 37841,
        "name": "SRMSAT",
        "group": "resource",
        "lat": -10.178521289139765,
        "lon": 20.318908368017684,
        "alt_km": 844.8294478194139,
        "timestamp": "2025-12-02T08:59:32.376445+00:00",
        "meta_object_name": "SRMSAT",
        "meta_object_id": "2011-058D",
        "meta_epoch": "2025-12-01T21:57:27.777312",
        "meta_mean_motion": 14.11505404,
        "meta_eccentricity": 0.0011754,
        "meta_inclination": 19.9698,
        "meta_ra_of_asc_node": 173.4687,
        "meta_arg_of_pericenter": 193.5378,
        "meta_mean_anomaly": 196.2106,
        "meta_ephemeris_type": 0,
        "meta_classification_type": "U",
        "meta_norad_cat_id": 37841,
        "meta_element_set_no": 999,
        "meta_rev_at_epoch": 72991,
        "meta_bstar": 0.00010221,
        "meta_mean_motion_dot": 4.53e-06,
        "meta_mean_motion_ddot": 0,
        "tle_line1": "1 37841U 11058D   25335.91490483  .00000453  00000+0  10221-3 0  9994",
        "tle_line2": "2 37841  19.9698 173.4687 0011754 193.5378 196.2106 14.11505404729915"
      },
      "geometry": {
        "type": "Point",
        "coordinates": [
          20.318908368017684,
          -10.178521289139765
        ]
      }
    },
    {
      "type": "Feature",
      "properties": {
        "norad_id": 38012,
        "name": "PLEIADES 1A",
        "group": "resource",
        "lat": 51.64697746852749,
        "lon": 38.82421361306878,
        "alt_km": 692.2039184278374,
        "timestamp": "2025-12-02T08:59:32.376456+00:00",
        "meta_object_name": "PLEIADES 1A",
        "meta_object_id": "2011-076F",
        "meta_epoch": "2025-12-02T05:46:17.923872",
        "meta_mean_motion": 14.58544331,
        "meta_eccentricity": 0.0001423,
        "meta_inclination": 98.1835,
        "meta_ra_of_asc_node": 49.1706,
        "meta_arg_of_pericenter": 82.0006,
        "meta_mean_anomaly": 346.2653,
        "meta_ephemeris_type": 0,
        "meta_classification_type": "U",
        "meta_norad_cat_id": 38012,
        "meta_element_set_no": 999,
        "meta_rev_at_epoch": 74328,
        "meta_bstar": 0.00011849,
        "meta_mean_motion_dot": 5.05e-06,
        "meta_mean_motion_ddot": 0,
        "tle_line1": "1 38012U 11076F   25336.24048523  .00000505  00000+0  11849-3 0  9991",
        "tle_line2": "2 38012  98.1835  49.1706 0001423  82.0006 346.2653 14.58544331743284"
      },
      "geometry": {
        "type": "Point",
        "coordinates": [
          38.82421361306878,
          51.64697746852749
        ]
      }
    },
    {
      "type": "Feature",
      "properties": {
        "norad_id": 38038,
        "name": "ZIYUAN 1-02C (ZY 1-02C)",
        "group": "resource",
        "lat": 5.6236894901845575,
        "lon": 41.741704137555736,
        "alt_km": 771.8700860285717,
        "timestamp": "2025-12-02T08:59:32.376466+00:00",
        "meta_object_name": "ZIYUAN 1-02C (ZY 1-02C)",
        "meta_object_id": "2011-079A",
        "meta_epoch": "2025-12-02T04:20:58.998624",
        "meta_mean_motion": 14.37992376,
        "meta_eccentricity": 0.0006714,
        "meta_inclination": 98.4347,
        "meta_ra_of_asc_node": 42.389,
        "meta_arg_of_pericenter": 167.7956,
        "meta_mean_anomaly": 277.205,
        "meta_ephemeris_type": 0,
        "meta_classification_type": "U",
        "meta_norad_cat_id": 38038,
        "meta_element_set_no": 999,
        "meta_rev_at_epoch": 73089,
        "meta_bstar": 0.00021376,
        "meta_mean_motion_dot": 6.03e-06,
        "meta_mean_motion_ddot": 0,
        "tle_line1": "1 38038U 11079A   25336.18123841  .00000603  00000+0  21376-3 0  9997",
        "tle_line2": "2 38038  98.4347  42.3890 0006714 167.7956 277.2050 14.37992376730895"
      },
      "geometry": {
        "type": "Point",
        "coordinates": [
          41.741704137555736,
          5.6236894901845575
        ]
      }
    },
    {
      "type": "Feature",
      "properties": {
        "norad_id": 38046,
        "name": "ZIYUAN 3-1 (ZY 3-1)",
        "group": "resource",
        "lat": 14.036959338755759,
        "lon": 40.758132754715994,
        "alt_km": 368.39504801813746,
        "timestamp": "2025-12-02T08:59:32.376477+00:00",
        "meta_object_name": "ZIYUAN 3-1 (ZY 3-1)",
        "meta_object_id": "2012-001A",
        "meta_epoch": "2025-12-02T04:19:59.119104",
        "meta_mean_motion": 15.66579405,
        "meta_eccentricity": 0.0002187,
        "meta_inclination": 97.1785,
        "meta_ra_of_asc_node": 42.3657,
        "meta_arg_of_pericenter": 36.3966,
        "meta_mean_anomaly": 323.7443,
        "meta_ephemeris_type": 0,
        "meta_classification_type": "U",
        "meta_norad_cat_id": 38046,
        "meta_element_set_no": 999,
        "meta_rev_at_epoch": 77331,
        "meta_bstar": 0.00068995,
        "meta_mean_motion_dot": 0.00072425,
        "meta_mean_motion_ddot": 0,
        "tle_line1": "1 38046U 12001A   25336.18054536  .00072425  00000+0  68995-3 0  9995",
        "tle_line2": "2 38046  97.1785  42.3657 0002187  36.3966 323.7443 15.66579405773313"
      },
      "geometry": {
        "type": "Point",
        "coordinates": [
          40.758132754715994,
          14.036959338755759
        ]
      }
    },
    {
      "type": "Feature",
      "properties": {
        "norad_id": 38338,
        "name": "ARIRANG-3 (KOMPSAT-3)",
        "group": "resource",
        "lat": -12.43132738557077,
        "lon": 109.03600158578416,
        "alt_km": 696.4928444022162,
        "timestamp": "2025-12-02T08:59:32.376487+00:00",
        "meta_object_name": "ARIRANG-3 (KOMPSAT-3)",
        "meta_object_id": "2012-025B",
        "meta_epoch": "2025-12-02T03:11:09.427200",
        "meta_mean_motion": 14.61688792,
        "meta_eccentricity": 0.0006111,
        "meta_inclination": 98.3306,
        "meta_ra_of_asc_node": 290.6433,
        "meta_arg_of_pericenter": 11.9819,
        "meta_mean_anomaly": 348.1526,
        "meta_ephemeris_type": 0,
        "meta_classification_type": "U",
        "meta_norad_cat_id": 38338,
        "meta_element_set_no": 999,
        "meta_rev_at_epoch": 72255,
        "meta_bstar": 0.00015827,
        "meta_mean_motion_dot": 7.4e-06,
        "meta_mean_motion_ddot": 0,
        "tle_line1": "1 38338U 12025B   25336.13274800  .00000740  00000+0  15827-3 0  9995",
        "tle_line2": "2 38338  98.3306 290.6433 0006111  11.9819 348.1526 14.61688792722553"
      },
      "geometry": {
        "type": "Point",
        "coordinates": [
          109.03600158578416,
          -12.43132738557077
        ]
      }
    }
  ]
}